GPS BIIR-2  (PRN 13)    
1 24876U 97035A   22026.26700173  .00000051  00000+0  00000+0 0  9993
2 24876  55.4941 161.2205 0056160  54.1196 306.3743  2.00563149179809
GPS BIIR-4  (PRN 20)    
1 26360U 00025A   22026.78255208 -.00000038  00000+0  00000+0 0  9993
2 26360  53.9435  84.7236 0052547 180.8410 278.1874  2.00556220159131
GPS BIIR-6  (PRN 22)    
1 26605U 00071A   22026.48724372  .00000042  00000+0  00000+0 0  9990
2 26605  55.0754 158.2656 0130159 252.8076 124.6442  2.00566001155373
GPS BIIR-8  (PRN 16)    
1 27663U 03005A   22026.68559914  .00000016  00000+0  00000+0 0  9996
2 27663  55.6096 278.6903 0125316  39.3807 329.4008  2.00572834139178
GPS BIIR-9  (PRN 21)    
1 27704U 03010A   22025.55297722 -.00000049  00000+0  00000+0 0  9996
2 27704  54.9683  29.0950 0247098 301.3941 188.4269  2.00573376137948
GPS BIIR-11 (PRN 19)    
1 28190U 04009A   22026.75943797 -.00000072  00000+0  00000+0 0  9994
2 28190  56.0838 339.6301 0087211 115.1449 106.8013  2.00563089130805
GPS BIIR-13 (PRN 02)    
1 28474U 04045A   22026.06542895 -.00000048  00000+0  00000+0 0  9990
2 28474  55.2984  29.1601 0208701 276.7093  72.0573  2.00562915126273
GPS BIIRM-1 (PRN 17)    
1 28874U 05038A   22026.75377924 -.00000072  00000+0  00000+0 0  9999
2 28874  56.1559 337.0576 0139153 273.6462 325.6979  2.00555393119694
GPS BIIRM-2 (PRN 31)    
1 29486U 06042A   22026.63960501  .00000116  00000+0  00000+0 0  9999
2 29486  54.7347 214.9131 0103879  20.0060  54.7714  2.00562500112257
GPS BIIRM-3 (PRN 12)    
1 29601U 06052A   22026.48479367  .00000017  00000+0  00000+0 0  9997
2 29601  55.6122 277.6308 0084069  70.5634 290.4076  2.00570522111268
GPS BIIRM-4 (PRN 15)    
1 32260U 07047A   22026.29213903  .00000020  00000+0  00000+0 0  9992
2 32260  53.2785 146.4355 0137391  61.0240 300.3265  2.00556175104667
GPS BIIRM-5 (PRN 29)    
1 32384U 07062A   22026.89067319 -.00000072  00000+0  00000+0 0  9998
2 32384  56.2704 337.7953 0016131 135.7488  67.5553  2.00553842103375
GPS BIIRM-6 (PRN 07)    
1 32711U 08012A   22026.21115781  .00000116  00000+0  00000+0 0  9999
2 32711  54.4919 213.8982 0156337 229.0721 129.5862  2.00560111101606
GPS BIIRM-8 (PRN 05)    
1 35752U 09043A   22026.37378927 -.00000034  00000+0  00000+0 0  9992
2 35752  54.9629  91.2526 0056764  56.7705  78.6247  2.00565639 91215
GPS BIIF-1  (PRN 25)    
1 36585U 10022A   22026.88932964  .00000029  00000+0  00000+0 0  9992
2 36585  54.8916 273.2319 0102288  55.1660 208.9589  2.00557952 85451
GPS BIIF-2  (PRN 01)    
1 37753U 11036A   22026.90006656 -.00000043  00000+0  00000+0 0  9996
2 37753  56.5400  34.2174 0111226  49.6586 306.5150  2.00564379 77133
GPS BIIF-3  (PRN 24)    
1 38833U 12053A   22026.39048371  .00000113  00000+0  00000+0 0  9996
2 38833  53.5450 209.1700 0121467  45.2732 315.7242  2.00560137 67294
GPS BIIF-4  (PRN 27)    
1 39166U 13023A   22026.25100174 -.00000069  00000+0  00000+0 0  9990
2 39166  55.7892 333.5060 0099802  35.2208 325.4397  2.00566585 63730
GPS BIIF-5  (PRN 30)    
1 39533U 14008A   22025.74852329  .00000113  00000+0  00000+0 0  9990
2 39533  53.6421 214.6877 0055353 204.5557 155.2024  2.00572971 57521
GPS BIIF-6  (PRN 06)    
1 39741U 14026A   22026.52649639 -.00000043  00000+0  00000+0 0  9999
2 39741  56.5044  33.7583 0028496 301.0245  58.7331  2.00565867 56392
GPS BIIF-7  (PRN 09)    
1 40105U 14045A   22026.61928531  .00000028  00000+0  00000+0 0  9999
2 40105  54.6637 152.4678 0020896 108.6283 251.5755  2.00567970 53935
GPS BIIF-8  (PRN 03)    
1 40294U 14068A   22026.49264033 -.00000033  00000+0  00000+0 0  9996
2 40294  55.7081  93.5472 0036679  53.5340 306.8564  2.00561444 53060
GPS BIIF-9  (PRN 26)    
1 40534U 15013A   22026.62457441  .00000032  00000+0  00000+0 0  9994
2 40534  53.7947 270.5709 0067364  18.5734 341.7403  2.00561084 49682
GPS BIIF-10 (PRN 08)    
1 40730U 15033A   22026.78699704 -.00000071  00000+0  00000+0 0  9995
2 40730  55.2909 332.3809 0071763   3.3623 356.6906  2.00559270 47854
GPS BIIF-11 (PRN 10)    
1 41019U 15062A   22026.33820488 -.00000033  00000+0  00000+0 0  9992
2 41019  55.6983  93.3933 0075971 216.5497 142.9820  2.00562997 45685
GPS BIIF-12 (PRN 32)    
1 41328U 16007A   22026.43440855  .00000032  00000+0  00000+0 0  9990
2 41328  54.8851 153.1119 0056435 226.0610 133.4503  2.00552236 43698
GPS BIII-1  (PRN 04)    
1 43873U 18109A   22026.81178557  .00000032  00000+0  00000+0 0  9991
2 43873  55.0659 155.4854 0016969 190.8040 337.5776  2.00564992 22933
GPS BIII-2  (PRN 18)    
1 44506U 19056A   22026.49877041 -.00000045  00000+0  00000+0 0  9990
2 44506  55.6105  34.6981 0021032 184.4983  20.4950  2.00569235 17920
GPS BIII-3  (PRN 23)    
1 45854U 20041A   22026.44118021 -.00000034  00000+0  00000+0 0  9992
2 45854  55.4146  91.9712 0019385 174.8923 288.4951  2.00560373 11894
GPS BIII-4  (PRN 14)    
1 46826U 20078A   22026.75913617  .00000022  00000+0  00000+0 0  9996
2 46826  54.6620 275.8448 0013423 183.7080 120.8761  2.00566408  9363
GPS BIII-5 (PRN 11)     
1 48859U 21054A   22026.75763648 -.00000045  00000+0  00000+0 0  9992
2 48859  55.1129  36.7570 0003176 208.2274 281.1983  2.00552946  4615
